COSMOS 2600             
1 67674U 26023A   26065.80617120  .00088018  00000+0  40148-3 0  9991
2 67674  96.6427 141.5413 0002124 345.6628  14.4583 15.83551027  4598
2026-023B               
1 67675U 26023B   26065.82925149  .00013752  00000+0  58537-3 0  9991
2 67675  96.6357 139.1082 0019330 141.8530 218.4081 15.22910737  4422
2026-023C               
1 67676U 26023C   26065.82775590  .00015896  00000+0  67342-3 0  9990
2 67676  96.6392 139.1316 0020330 132.2550 228.0418 15.23025576  4587
2026-023D               
1 67677U 26023D   26065.83053363  .00013363  00000+0  56983-3 0  9995
2 67677  96.6422 139.1207 0020585 137.0558 223.2292 15.22832982  4419
2026-023E               
1 67678U 26023E   26065.82821862  .00016428  00000+0  69603-3 0  9990
2 67678  96.6316 139.0986 0020314 136.5336 223.7508 15.23014406  4412
2026-023F               
1 67679U 26023F   26065.89117664  .00018499  00000+0  77874-3 0  9995
2 67679  96.6325 141.6573 0022171 131.1861 229.1295 15.23173915  4415
2026-023G               
1 67680U 26023G   26065.89194245  .00018344  00000+0  77244-3 0  9997
2 67680  96.6253 141.6373 0023680 127.8269 232.5118 15.23132834  4412
2026-023H               
1 67681U 26023H   26065.89217203  .00015068  00000+0  63669-3 0  9994
2 67681  96.6398 141.6727 0023790 127.1766 233.1650 15.23051746  4413
2026-023J               
1 67682U 26023J   26065.89086023  .00015598  00000+0  65686-3 0  9998
2 67682  96.6352 141.6758 0023864 123.9939 236.3572 15.23158363  4417
ISS OBJECT XZ           
1 67683U 98067XZ  26065.44303726  .00040277  00000+0  67173-3 0  9994
2 67683  51.6308  87.9775 0009459 174.9626 185.1460 15.51523335  4282
GXIBA-1                 
1 67684U 98067YA  26065.35635560  .00076870  00000+0  11728-2 0  9991
2 67684  51.6296  88.1497 0010932 164.4811 195.6517 15.53698977  4276
CORAL                   
1 67685U 98067YB  26065.37492343  .00044090  00000+0  72551-3 0  9995
2 67685  51.6303  88.2731 0011331 171.0094 189.1100 15.51836923  4278
ISS OBJECT YC           
1 67686U 98067YC  26065.37047129  .00051923  00000+0  83919-3 0  9997
2 67686  51.6305  88.2448 0007826 138.7374 221.4209 15.52303119  4278
LEOPARD                 
1 67687U 98067YD  26065.44105420  .00044085  00000+0  73033-3 0  9992
2 67687  51.6311  87.9659 0007779 143.5641 216.5880 15.51685674  4205
ISS OBJECT YE           
1 67688U 98067YE  26065.37246683  .00047802  00000+0  77966-3 0  9991
2 67688  51.6307  88.2580 0007752 139.1868 220.9703 15.52085564  4195
PRC TEST SPACECRAFT 4   
1 67689U 26024A   26065.81371714  .00000257  00000+0  49259-4 0  9997
2 67689  49.9863  36.2718 0006108 349.1666  10.9143 14.91685632  4157
CZ-2F R/B               
1 67690U 26024B   26065.77217059  .00023933  00000+0  43640-3 0  9998
2 67690  49.9883  29.2301 0174816 262.7575  95.3484 15.34193911  4249
